[{"OBJECT_NAME":"OBJECT V","OBJECT_ID":"2023-085V","EPOCH":"2026-03-09T21:44:00.165408","MEAN_MOTION":15.30745852,"ECCENTRICITY":0.00069081,"INCLINATION":97.4843,"RA_OF_ASC_NODE":179.3833,"ARG_OF_PERICENTER":71.0503,"MEAN_ANOMALY":289.1485,"EPHEMERIS_TYPE":0,"CLASSIFICATION_TYPE":"U","NORAD_CAT_ID":57023,"ELEMENT_SET_NO":999,"REV_AT_EPOCH":15149,"BSTAR":0.00067780507,"MEAN_MOTION_DOT":0.00020109,"MEAN_MOTION_DDOT":0},{"OBJECT_NAME":"STARLINK-34190","OBJECT_ID":"2025-107Q","EPOCH":"2026-03-09T09:06:12.331296","MEAN_MOTION":15.27578913,"ECCENTRICITY":0.00017564,"INCLINATION":42.9997,"RA_OF_ASC_NODE":203.2434,"ARG_OF_PERICENTER":280.7177,"MEAN_ANOMALY":79.3477,"EPHEMERIS_TYPE":0,"CLASSIFICATION_TYPE":"U","NORAD_CAT_ID":64078,"ELEMENT_SET_NO":999,"REV_AT_EPOCH":4607,"BSTAR":0.00093171825,"MEAN_MOTION_DOT":0.00025465,"MEAN_MOTION_DDOT":0}]
